$$SOE
2460154.500000000, A.D. 2023-Jul-29 00:00:00.0000, -5.021366519787202E+08, 1.751140189344884E+07, 1.970563940187035E+06,
2460161.500000000, A.D. 2023-Aug-05 00:00:00.0000, -5.032070182539141E+08, 9.183629191599369E+06, 2.386954834184831E+06,
2460168.500000000, A.D. 2023-Aug-12 00:00:00.0000, -5.040858300332230E+08, 8.523385857451701E+05, 2.802438855331652E+06,
2460175.500000000, A.D. 2023-Aug-19 00:00:00.0000, -5.047736648487827E+08, -7.479297933144022E+06, 3.216862958985807E+06,
2460182.500000000, A.D. 2023-Aug-26 00:00:00.0000, -5.052711095409279E+08, -1.580813775581593E+07, 3.630075558666285E+06,
2460189.500000000, A.D. 2023-Sep-02 00:00:00.0000, -5.055787598842637E+08, -2.413106560327659E+07, 4.041926425068690E+06,
2460196.500000000, A.D. 2023-Sep-09 00:00:00.0000, -5.056972202669824E+08, -3.244499162479492E+07, 4.452266575943818E+06,
2460203.500000000, A.D. 2023-Sep-16 00:00:00.0000, -5.056271032524809E+08, -4.074684970136957E+07, 4.860948136599576E+06,
2460210.500000000, A.D. 2023-Sep-23 00:00:00.0000, -5.053690286045170E+08, -4.903359566585394E+07, 5.267824156239875E+06,
2460217.500000000, A.D. 2023-Sep-30 00:00:00.0000, -5.049236221131391E+08, -5.730220424711186E+07, 5.672748508590762E+06,
2460224.500000000, A.D. 2023-Oct-07 00:00:00.0000, -5.042915165733400E+08, -6.554966527958012E+07, 6.075576048320346E+06,
2460231.500000000, A.D. 2023-Oct-14 00:00:00.0000, -5.034733538761603E+08, -7.377298248989625E+07, 6.476162657100748E+06,
2460238.500000000, A.D. 2023-Oct-21 00:00:00.0000, -5.024697849831381E+08, -8.196917325532149E+07, 6.874365014298093E+06,
2460245.500000000, A.D. 2023-Oct-28 00:00:00.0000, -5.012814692063537E+08, -9.013526707134433E+07, 7.270040407878872E+06,
2460252.500000000, A.D. 2023-Nov-04 00:00:00.0000, -4.999090740423610E+08, -9.826830349751522E+07, 7.663046637371544E+06,
2460259.500000000, A.D. 2023-Nov-11 00:00:00.0000, -4.983532753821613E+08, -1.063653301803060E+08, 8.053241943665598E+06,
2460266.500000000, A.D. 2023-Nov-18 00:00:00.0000, -4.966147578779808E+08, -1.144234010157617E+08, 8.440484940394826E+06,
2460273.500000000, A.D. 2023-Nov-25 00:00:00.0000, -4.946942153941805E+08, -1.224395744276323E+08, 8.824634542223938E+06,
2460280.500000000, A.D. 2023-Dec-02 00:00:00.0000, -4.925923515142503E+08, -1.304109117705339E+08, 9.205549886653684E+06,
2460287.500000000, A.D. 2023-Dec-09 00:00:00.0000, -4.903098800264196E+08, -1.383344759155162E+08, 9.583090237438306E+06,
2460294.500000000, A.D. 2023-Dec-16 00:00:00.0000, -4.878475251009723E+08, -1.462073300039149E+08, 9.957114844246037E+06,
2460301.500000000, A.D. 2023-Dec-23 00:00:00.0000, -4.852060208115146E+08, -1.540265356802968E+08, 1.032748278269150E+07,
2460308.500000000, A.D. 2023-Dec-30 00:00:00.0000, -4.823861113408945E+08, -1.617891497533781E+08, 1.069405298324910E+07,
2460315.500000000, A.D. 2024-Jan-06 00:00:00.0000, -4.793885536449161E+08, -1.694922216440973E+08, 1.105668441843123E+07,
2460322.500000000, A.D. 2024-Jan-13 00:00:00.0000, -4.762141194025583E+08, -1.771327934261345E+08, 1.141523600927987E+07,
2460329.500000000, A.D. 2024-Jan-20 00:00:00.0000, -4.728635950297236E+08, -1.847078993720259E+08, 1.176956639081484E+07,
2460336.500000000, A.D. 2024-Jan-27 00:00:00.0000, -4.693377817846603E+08, -1.922145643511326E+08, 1.211953377554092E+07,
2460343.500000000, A.D. 2024-Feb-03 00:00:00.0000, -4.656374963938982E+08, -1.996498020281676E+08, 1.246499587638535E+07,
2460350.500000000, A.D. 2024-Feb-10 00:00:00.0000, -4.617635719239301E+08, -2.070106131539890E+08, 1.280580983945518E+07,
2460357.500000000, A.D. 2024-Feb-17 00:00:00.0000, -4.577168587637731E+08, -2.142939839406207E+08, 1.314183217429706E+07,
2460364.500000000, A.D. 2024-Feb-24 00:00:00.0000, -4.534982256863064E+08, -2.214968845047473E+08, 1.347291867943950E+07,
2460371.500000000, A.D. 2024-Mar-02 00:00:00.0000, -4.491085609623990E+08, -2.286162674108899E+08, 1.379892435780011E+07,
2460378.500000000, A.D. 2024-Mar-09 00:00:00.0000, -4.445487733920622E+08, -2.356490663758629E+08, 1.411970330404437E+07,
2460385.500000000, A.D. 2024-Mar-16 00:00:00.0000, -4.398197928602870E+08, -2.425921949361627E+08, 1.443510854373708E+07,
2460392.500000000, A.D. 2024-Mar-23 00:00:00.0000, -4.349225705240633E+08, -2.494425439682442E+08, 1.474499192440006E+07,
2460399.500000000, A.D. 2024-Mar-30 00:00:00.0000, -4.298580808745912E+08, -2.561969780878248E+08, 1.504920426179837E+07,
2460406.500000000, A.D. 2024-Apr-06 00:00:00.0000, -4.246273254224249E+08, -2.628523342960141E+08, 1.534759544269112E+07,
2460413.500000000, A.D. 2024-Apr-13 00:00:00.0000, -4.192313344595219E+08, -2.694054220359582E+08, 1.564001422672512E+07,
2460420.500000000, A.D. 2024-Apr-20 00:00:00.0000, -4.136711678549908E+08, -2.758530219823804E+08, 1.592630805367090E+07,
2460427.500000000, A.D. 2024-Apr-27 00:00:00.0000, -4.079479164051875E+08, -2.821918841244532E+08, 1.620632294932070E+07,
2460434.500000000, A.D. 2024-May-04 00:00:00.0000, -4.020627036540157E+08, -2.884187258454478E+08, 1.647990346449570E+07,
2460441.500000000, A.D. 2024-May-11 00:00:00.0000, -3.960166879498293E+08, -2.945302301018862E+08, 1.674689261703163E+07,
2460448.500000000, A.D. 2024-May-18 00:00:00.0000, -3.898110646626981E+08, -3.005230436818172E+08, 1.700713183117576E+07,
2460455.500000000, A.D. 2024-May-25 00:00:00.0000, -3.834470685437333E+08, -3.063937755506503E+08, 1.726046087184867E+07,
2460462.500000000, A.D. 2024-Jun-01 00:00:00.0000, -3.769259761735438E+08, -3.121389953434277E+08, 1.750671776396704E+07,
2460469.500000000, A.D. 2024-Jun-08 00:00:00.0000, -3.702491082608835E+08, -3.177552320281437E+08, 1.774573867278381E+07,
2460476.500000000, A.D. 2024-Jun-15 00:00:00.0000, -3.634178313998062E+08, -3.232389721967859E+08, 1.797735775360720E+07,
2460483.500000000, A.D. 2024-Jun-22 00:00:00.0000, -3.564335602984258E+08, -3.285866568107643E+08, 1.820140715958181E+07,
2460490.500000000, A.D. 2024-Jun-29 00:00:00.0000, -3.492977626087585E+08, -3.337946782240173E+08, 1.841771725370090E+07,
2460497.500000000, A.D. 2024-Jul-06 00:00:00.0000, -3.420119637216296E+08, -3.388593799589227E+08, 1.862611658087882E+07,
2460504.500000000, A.D. 2024-Jul-13 00:00:00.0000, -3.345777495877466E+08, -3.437770564153390E+08, 1.882643165257631E+07,
2460511.500000000, A.D. 2024-Jul-20 00:00:00.0000, -3.269967695608702E+08, -3.485439513679973E+08, 1.901848682045293E+07,
2460518.500000000, A.D. 2024-Jul-27 00:00:00.0000, -3.192707399289875E+08, -3.531562562160954E+08, 1.920210422111525E+07,
2460525.500000000, A.D. 2024-Aug-03 00:00:00.0000, -3.114014478707997E+08, -3.576101083657767E+08, 1.937710373647794E+07,
2460532.500000000, A.D. 2024-Aug-10 00:00:00.0000, -3.033907556830152E+08, -3.619015897571617E+08, 1.954330295435300E+07,
2460539.500000000, A.D. 2024-Aug-17 00:00:00.0000, -2.952406052436538E+08, -3.660267255224868E+08, 1.970051712697782E+07,
2460546.500000000, A.D. 2024-Aug-24 00:00:00.0000, -2.869530226971167E+08, -3.699814828065326E+08, 1.984855912347512E+07,
2460553.500000000, A.D. 2024-Aug-31 00:00:00.0000, -2.785301232597203E+08, -3.737617698203070E+08, 1.998723936104462E+07,
2460560.500000000, A.D. 2024-Sep-07 00:00:00.0000, -2.699741157950241E+08, -3.773634350116049E+08, 2.011636569216076E+07,
2460567.500000000, A.D. 2024-Sep-14 00:00:00.0000, -2.612873070885696E+08, -3.807822653669683E+08, 2.023574332182628E+07,
2460574.500000000, A.D. 2024-Sep-21 00:00:00.0000, -2.524721078649312E+08, -3.840139834436160E+08, 2.034517497508673E+07,
2460581.500000000, A.D. 2024-Sep-28 00:00:00.0000, -2.435310410478825E+08, -3.870542463729426E+08, 2.044446109608258E+07,
2460588.500000000, A.D. 2024-Oct-05 00:00:00.0000, -2.344667486086505E+08, -3.898986468525163E+08, 2.053339974277116E+07,
2460595.500000000, A.D. 2024-Oct-12 00:00:00.0000, -2.252819973799731E+08, -3.925427131681688E+08, 2.061178645495576E+07,
2460602.500000000, A.D. 2024-Oct-19 00:00:00.0000, -2.159796856054879E+08, -3.949819085400785E+08, 2.067941423538056E+07,
2460609.500000000, A.D. 2024-Oct-26 00:00:00.0000, -2.065628502760318E+08, -3.972116306186002E+08, 2.073607358278255E+07,
2460616.500000000, A.D. 2024-Nov-02 00:00:00.0000, -1.970346750145295E+08, -3.992272113044398E+08, 2.078155254263864E+07,
2460623.500000000, A.D. 2024-Nov-09 00:00:00.0000, -1.873984984314965E+08, -4.010239169015599E+08, 2.081563677000208E+07,
2460630.500000000, A.D. 2024-Nov-16 00:00:00.0000, -1.776578229438381E+08, -4.025969486351825E+08, 2.083810960385305E+07,
2460637.500000000, A.D. 2024-Nov-23 00:00:00.0000, -1.678163240286936E+08, -4.039414436210355E+08, 2.084875214660798E+07,
2460644.500000000, A.D. 2024-Nov-30 00:00:00.0000, -1.578778597224591E+08, -4.050524763684797E+08, 2.084734332843603E+07,
2460651.500000000, A.D. 2024-Dec-07 00:00:00.0000, -1.478464799634911E+08, -4.059250604410216E+08, 2.083365995473064E+07,
2460658.500000000, A.D. 2024-Dec-14 00:00:00.0000, -1.377264364842369E+08, -4.065541490985979E+08, 2.080747690256225E+07,
2460665.500000000, A.D. 2024-Dec-21 00:00:00.0000, -1.275221955867441E+08, -4.069346362150922E+08, 2.076856758013149E+07,
2460672.500000000, A.D. 2024-Dec-28 00:00:00.0000, -1.172384518423652E+08, -4.070613604974310E+08, 2.071670422878405E+07,
2460679.500000000, A.D. 2025-Jan-04 00:00:00.0000, -1.068801401305294E+08, -4.069291106966922E+08, 2.065165802708699E+07,
2460686.500000000, A.D. 2025-Jan-11 00:00:00.0000, -9.645244784818666E+07, -4.065326302239301E+08, 2.057319930365629E+07,
2460693.500000000, A.D. 2025-Jan-18 00:00:00.0000, -8.596082821380731E+07, -4.058666221677046E+08, 2.048109787201022E+07,
2460700.500000000, A.D. 2025-Jan-25 00:00:00.0000, -7.541101442510842E+07, -4.049257552726976E+08, 2.037512343082523E+07,
2460707.500000000, A.D. 2025-Feb-01 00:00:00.0000, -6.480903447832967E+07, -4.037046710016826E+08, 2.025504601446287E+07,
2460714.500000000, A.D. 2025-Feb-08 00:00:00.0000, -5.416122658143465E+07, -4.021979917616248E+08, 2.012063649499033E+07,
$$EOE